COSMOS 2433 (720)       
1 32275U 07052A   24245.23882690 -.00000086  00000+0  00000+0 0  9991
2 32275  65.9047 337.8543 0004287 222.4807 137.5241  2.13104218131124
COSMOS 2432 (719)       
1 32276U 07052B   24243.39053031 -.00000093  00000+0  00000+0 0  9994
2 32276  65.9207 338.0311 0008369 315.7325  12.3216  2.13103228131105
COSMOS 2434 (721)       
1 32393U 07065A   24245.54196237  .00000005  00000+0  00000+0 0  9995
2 32393  64.3213 213.9870 0000510  30.2987  94.5576  2.13101342129843
COSMOS 2436 (723)       
1 32395U 07065C   24245.35718116  .00000006  00000+0  00000+0 0  9993
2 32395  64.3298 214.0585 0016330 354.2100 123.9888  2.13100137129794
COSMOS 2456 (730)       
1 36111U 09070A   24245.38567399  .00000033  00000+0  00000+0 0  9999
2 36111  64.6468  93.3419 0002157 339.8128 179.1003  2.13103903114498
COSMOS 2457 (733)       
1 36112U 09070B   24246.22290338  .00000034  00000+0  00000+0 0  9991
2 36112  64.6321  93.1702 0005620 140.6828  73.9516  2.13101356114550
COSMOS 2460 (732)       
1 36402U 10007C   24245.50228597 -.00000083  00000+0  00000+0 0  9998
2 36402  65.7596 336.4979 0001665 195.7661 178.8986  2.13106359112808
COSMOS 2476 (744)       
1 37867U 11064A   24245.57062020  .00000035  00000+0  00000+0 0  9998
2 37867  64.9188  94.9990 0021530 232.2963 340.7410  2.13101712 99833
COSMOS 2477 (745)       
1 37868U 11064B   24245.28164965  .00000034  00000+0  00000+0 0  9997
2 37868  64.9254  95.0820 0018696 232.7111 297.1260  2.13103198 99828
COSMOS 2475 (743)       
1 37869U 11064C   24245.37701326  .00000034  00000+0  00000+0 0  9996
2 37869  64.9324  95.0943 0023186 249.7232 311.3506  2.13101995 99820
COSMOS 2485 (747)       
1 39155U 13019A   24245.23489447  .00000034  00000+0  00000+0 0  9990
2 39155  65.0753  95.6106 0021982 228.2284 131.6744  2.13101939 88346
COSMOS 2492 (754)       
1 39620U 14012A   24245.19008814 -.00000084  00000+0  00000+0 0  9997
2 39620  65.6408 336.0745 0011512 313.0059  46.9383  2.13103252 81304
COSMOS 2500 (755)       
1 40001U 14032A   24245.36845310 -.00000083  00000+0  00000+0 0  9992
2 40001  65.5777 335.8675 0008487 201.0290 158.9777  2.13105990 79529
COSMOS 2501 (702K)      
1 40315U 14075A   24245.62237114  .00000003  00000+0  00000+0 0  9994
2 40315  63.6224 213.0186 0020753 210.9416 148.9099  2.13101464 75924
COSMOS 2514 (751)       
1 41330U 16008A   24245.60516970 -.00000081  00000+0  00000+0 0  9995
2 41330  65.3719 335.3496 0012347 208.3743 151.6019  2.13102698 66693
COSMOS 2522 (752)       
1 42939U 17055A   24245.44511464  .00000006  00000+0  00000+0 0  9995
2 42939  64.0835 214.1593 0009843 241.5246 118.3513  2.13101964 54040
COSMOS 2527 (756)       
1 43508U 18053A   24244.93534272  .00000033  00000+0  00000+0 0  9992
2 43508  65.2353  95.7885 0007121 218.3155 141.7247  2.13102387 48335
COSMOS 2529 (757)       
1 43687U 18086A   24245.50317933  .00000006  00000+0  00000+0 0  9993
2 43687  64.2990 214.6904 0011279 260.0627  99.7854  2.13102041 45352
COSMOS 2534 (758)       
1 44299U 19030A   24245.45099277  .00000007  00000+0  00000+0 0  9996
2 44299  64.3723 214.6527 0013176 279.5919 174.4636  2.13102132 40990
COSMOS 2544 (759)       
1 44850U 19088A   24245.81796513  .00000036  00000+0  00000+0 0  9991
2 44850  65.2223  95.5944 0011471 250.6595 109.3080  2.13102178 36796
COSMOS 2545 (760)       
1 45358U 20018A   24244.13770733 -.00000088  00000+0  00000+0 0  9998
2 45358  64.7121 335.3492 0010585 236.9503 122.9863  2.13102582 34703
COSMOS 2547 (705K)      
1 46805U 20075A   24245.26296021  .00000007  00000+0  00000+0 0  9997
2 46805  64.6014 214.3231 0008637 241.7420 118.1468  2.13102880 29977
COSMOS 2557 (706K)      
1 52984U 22075A   24245.42858446 -.00000086  00000+0  00000+0 0  9995
2 52984  64.6401 337.4273 0012199 273.4913  86.4086  2.13102382 16787
COSMOS 2559 (707K)      
1 54031U 22130A   24245.37172170 -.00000086  00000+0  00000+0 0  9999
2 54031  64.6119 337.5442 0007641 218.8834 141.1005  2.13101654 14754
COSMOS 2564 (761)       
1 54377U 22161A   24246.03148812  .00000006  00000+0  00000+0 0  9997
2 54377  64.7427 214.4160 0011085 224.6318 135.2532  2.13102160 13716
COSMOS 2569 (703K)      
1 57517U 23114A   24245.57917841  .00000035  00000+0  00000+0 0  9991
2 57517  64.9501  94.7242 0008979 296.3506  63.6481  2.13103946  8335
